ONEWEB-0037             
1 45440U 20020S   24009.87497293  .00000089  00000+0  21569-3 0  9997
2 45440  87.8955 197.7774 0001190  93.5959 266.5305 13.11420071186130
ONEWEB-0042             
1 45441U 20020T   24009.88298016  .00000484  00000+0  13284-2 0  9994
2 45441  87.8961 197.7981 0001367 100.0641 260.0641 13.11418761186108
ONEWEB-0098             
1 45442U 20020U   24009.87659845  .00000197  00000+0  52071-3 0  9994
2 45442  87.8960 197.8090 0001622  91.5551 268.5762 13.11419204186085
ONEWEB-0055             
1 45443U 20020V   24009.94072603 -.00000294  00000+0 -86423-3 0  9992
2 45443  87.8959 197.7999 0001600  94.0957 266.0354 13.11418837186064
ONEWEB-0093             
1 45444U 20020W   24009.91393280 -.00000148  00000+0 -45207-3 0  9990
2 45444  87.8958 197.7838 0001691 100.0382 260.0937 13.11414691186128
ONEWEB-0029             
1 45445U 20020X   24009.93340440 -.00000500  00000+0 -14475-2 0  9997
2 45445  87.8959 197.7937 0001324 101.4042 258.7235 13.11416560186101
ONEWEB-0068             
1 45446U 20020Y   24009.90826440  .00000107  00000+0  26678-3 0  9994
2 45446  87.8959 197.7838 0001518  97.0657 263.0643 13.11414176186045
ONEWEB-0046             
1 45447U 20020Z   24009.90585071  .00000495  00000+0  13618-2 0  9996
2 45447  87.8959 197.7967 0001065  89.2575 270.8675 13.11416189186056
